[{"OBJECT_NAME":"STARLINK-5322","OBJECT_ID":"2023-010AL","EPOCH":"2026-03-09T09:00:13.300416","MEAN_MOTION":14.98337368,"ECCENTRICITY":0.00028967,"INCLINATION":70.0005,"RA_OF_ASC_NODE":45.0513,"ARG_OF_PERICENTER":272.1045,"MEAN_ANOMALY":87.9783,"EPHEMERIS_TYPE":0,"CLASSIFICATION_TYPE":"U","NORAD_CAT_ID":55303,"ELEMENT_SET_NO":999,"REV_AT_EPOCH":17273,"BSTAR":6.6190871e-5,"MEAN_MOTION_DOT":6.97e-6,"MEAN_MOTION_DDOT":0},{"OBJECT_NAME":"UNISAT-2","OBJECT_ID":"2002-058D","EPOCH":"2026-03-09T21:26:58.912224","MEAN_MOTION":14.84095062,"ECCENTRICITY":0.00633056,"INCLINATION":64.5535,"RA_OF_ASC_NODE":329.2093,"ARG_OF_PERICENTER":269.3781,"MEAN_ANOMALY":90.0072,"EPHEMERIS_TYPE":0,"CLASSIFICATION_TYPE":"U","NORAD_CAT_ID":27608,"ELEMENT_SET_NO":999,"REV_AT_EPOCH":25205,"BSTAR":0.00017704747,"MEAN_MOTION_DOT":1.378e-5,"MEAN_MOTION_DDOT":0}]
